NORAD_CAT_ID,OBJECT_NAME,OBJECT_TYPE,EPOCH,MEAN_MOTION,ECCENTRICITY,INCLINATION,RA_OF_ASC_NODE,ARG_OF_PERICENTER,MEAN_ANOMALY,BSTAR,MEAN_MOTION_DOT,MEAN_MOTION_DDOT,TLE_LINE0,TLE_LINE1,TLE_LINE2,SEMIMAJOR_AXIS,PERIOD,APOGEE,PERIGEE,DECAYED
55929.0,STARLINK-5898,PAYLOAD,2024-02-22 22:28:21,14.98335765,0.000274,70.0015,24.6391,269.0085,91.076,9.0051e-05,9.82e-06,0.0,0 STARLINK-5898,1 55929U 23037R   24053.93635572  .00000982  00000-0  90051-4 0  9997,2 55929  70.0015  24.6391 0002740 269.0085  91.0760 14.98335765 51788,6950.175,96.107,573.944,570.136,0.0
55929.0,STARLINK-5898,PAYLOAD,2024-02-23 04:52:53,14.98340294,0.0002567,70.0014,23.9661,260.58,99.5069,5.4413e-05,5.57e-06,0.0,0 STARLINK-5898,1 55929U 23037R   24054.20339229  .00000557  00000-0  54413-4 0  9998,2 55929  70.0014  23.9661 0002567 260.5800  99.5069 14.98340294 52168,6950.161,96.106,573.81,570.242,0.0
55929.0,STARLINK-5898,PAYLOAD,2024-02-23 08:05:09,14.98339955,0.000263,70.0015,23.6295,263.8198,96.2662,6.5764e-05,6.92e-06,0.0,0 STARLINK-5898,1 55929U 23037R   24054.33691192  .00000692  00000-0  65764-4 0  9993,2 55929  70.0015  23.6295 0002630 263.8198  96.2662 14.98339955 51845,6950.162,96.106,573.855,570.199,0.0
55929.0,STARLINK-5898,PAYLOAD,2024-02-23 20:54:14,14.98328806,0.0002674,70.0019,22.2831,271.9749,88.1103,6.2142e-05,6.49e-06,0.0,0 STARLINK-5898,1 55929U 23037R   24054.87099877  .00000649  00000-0  62142-4 0  9993,2 55929  70.0019  22.2831 0002674 271.9749  88.1103 14.98328806 52260,6950.197,96.107,573.92,570.203,0.0
55929.0,STARLINK-5898,PAYLOAD,2024-02-23 22:30:22,14.98334865,0.0002265,70.0017,22.1146,274.2391,85.8509,-5.988e-05,-8.07e-06,0.0,0 STARLINK-5898,1 55929U 23037R   24054.93775848 -.00000807  00000-0 -59880-4 0  9992,2 55929  70.0017  22.1146 0002265 274.2391  85.8509 14.98334865 51930,6950.178,96.107,573.617,570.469,0.0
55929.0,STARLINK-5898,PAYLOAD,2024-02-24 08:07:09,14.98359886,0.0002217,70.002,21.1049,271.0594,89.0311,-0.0004593,-5.573e-05,0.0,0 STARLINK-5898,1 55929U 23037R   24055.33830769 -.00005573  00000-0 -45930-3 0  9996,2 55929  70.0020  21.1049 0002217 271.0594  89.0311 14.98359886 52334,6950.1,96.105,573.506,570.425,0.0
55929.0,STARLINK-5898,PAYLOAD,2024-02-24 14:31:42,14.98347964,0.0002642,70.0021,20.4323,269.9637,90.1219,-0.00023805,-2.933e-05,0.0,0 STARLINK-5898,1 55929U 23037R   24055.60535057 -.00002933  00000-0 -23805-3 0  9992,2 55929  70.0021  20.4323 0002642 269.9637  90.1219 14.98347964 52039,6950.137,96.106,573.839,570.166,0.0
55929.0,STARLINK-5898,PAYLOAD,2024-02-24 20:56:14,14.9833436,0.0002656,70.0021,19.7587,269.0054,91.0801,6.6079e-05,6.96e-06,0.0,0 STARLINK-5898,1 55929U 23037R   24055.87239414  .00000696  00000-0  66079-4 0  9992,2 55929  70.0021  19.7587 0002656 269.0054  91.0801 14.98334360 52416,6950.179,96.107,573.89,570.198,0.0
55929.0,STARLINK-5898,PAYLOAD,2024-02-25 14:33:41,14.98418658,0.0002439,70.0048,17.9069,261.434,98.6543,-0.0016197,-0.00019409,0.0,0 STARLINK-5898,1 55929U 23037R   24056.60672756 -.00019409  00000-0 -16197-2 0  9992,2 55929  70.0048  17.9069 0002439 261.4340  98.6543 14.98418658 52186,6949.919,96.101,573.479,570.089,0.0
55929.0,STARLINK-5898,PAYLOAD,2024-02-25 22:34:23,14.98331884,0.0002838,70.0039,17.0652,262.6025,97.4811,-2.5424e-06,-1.23e-06,0.0,0 STARLINK-5898,1 55929U 23037R   24056.94055454 -.00000123  00000-0 -25424-5 0  9998,2 55929  70.0039  17.0652 0002838 262.6025  97.4811 14.98331884 52237,6950.187,96.107,574.025,570.08,0.0
55929.0,STARLINK-5898,PAYLOAD,2024-02-26 03:22:47,14.98332798,0.0002557,70.0024,16.5613,264.2806,95.8061,0.00010399,1.148e-05,0.0,0 STARLINK-5898,1 55929U 23037R   24057.14083161  .00001148  00000-0  10399-3 0  9996,2 55929  70.0024  16.5613 0002557 264.2806  95.8061 14.98332798 52600,6950.184,96.107,573.826,570.272,0.0
55929.0,STARLINK-5898,PAYLOAD,2024-02-26 06:35:03,14.98333697,0.0002652,70.0021,16.2244,267.6164,92.4692,0.00010165,1.12e-05,0.0,0 STARLINK-5898,1 55929U 23037R   24057.27435096  .00001120  00000-0  10165-3 0  9999,2 55929  70.0021  16.2244 0002652 267.6164  92.4692 14.98333697 52280,6950.181,96.107,573.89,570.203,0.0
55929.0,STARLINK-5898,PAYLOAD,2024-02-26 22:36:25,14.98325514,0.0002801,70.0021,14.5414,267.6766,92.4072,3.4619e-05,3.2e-06,0.0,0 STARLINK-5898,1 55929U 23037R   24057.94195718  .00000320  00000-0  34619-4 0  9999,2 55929  70.0021  14.5414 0002801 267.6766  92.4072 14.98325514 52386,6950.207,96.107,574.019,570.125,0.0
55929.0,STARLINK-5898,PAYLOAD,2024-02-27 03:24:49,14.98323261,0.0002166,70.0031,14.0379,253.0773,107.0149,-9.4547e-05,-1.221e-05,0.0,0 STARLINK-5898,1 55929U 23037R   24058.14224202 -.00001221  00000-0 -94547-4 0  9992,2 55929  70.0031  14.0379 0002166 253.0773 107.0149 14.98323261 52759,6950.214,96.107,573.584,570.573,0.0
55929.0,STARLINK-5898,PAYLOAD,2024-02-27 14:37:46,14.98300583,0.0002089,70.003,12.8577,284.1445,75.9482,0.00049509,5.815e-05,0.0,0 STARLINK-5898,1 55929U 23037R   24058.60956889  .00005815  00000-0  49509-3 0  9994,2 55929  70.0030  12.8577 0002089 284.1445  75.9482 14.98300583 52484,6950.284,96.109,573.601,570.697,0.0
55929.0,STARLINK-5898,PAYLOAD,2024-02-27 22:38:25,14.98330823,0.000279,70.0019,12.0168,273.0176,87.0663,9.1189e-05,9.95e-06,0.0,0 STARLINK-5898,1 55929U 23037R   24058.94335297  .00000995  00000-0  91189-4 0  9991,2 55929  70.0019  12.0168 0002790 273.0176  87.0663 14.98330823 52537,6950.19,96.107,573.994,570.116,0.0
55929.0,STARLINK-5898,PAYLOAD,2024-02-28 03:26:49,14.9833715,0.0002746,70.0011,11.5106,264.1227,95.9619,4.879e-05,4.89e-06,0.0,0 STARLINK-5898,1 55929U 23037R   24059.14362969  .00000489  00000-0  48790-4 0  9998,2 55929  70.0011  11.5106 0002746 264.1227  95.9619 14.98337150 52904,6950.171,96.107,573.944,570.127,0.0
55929.0,STARLINK-5898,PAYLOAD,2024-02-28 14:39:46,14.98326643,0.0002685,70.0014,10.332,273.9532,86.132,0.00012636,1.415e-05,0.0,0 STARLINK-5898,1 55929U 23037R   24059.61095466  .00001415  00000-0  12636-3 0  9994,2 55929  70.0014  10.3320 0002685 273.9532  86.1320 14.98326643 52637,6950.203,96.107,573.934,570.202,0.0
55929.0,STARLINK-5898,PAYLOAD,2024-02-28 19:28:10,14.98325277,0.0002681,70.0012,9.8271,269.1661,90.9191,0.00012564,1.406e-05,0.0,0 STARLINK-5898,1 55929U 23037R   24059.81123491  .00001406  00000-0  12564-3 0  9996,2 55929  70.0012   9.8271 0002681 269.1661  90.9191 14.98325277 53002,6950.207,96.107,573.936,570.209,0.0
55929.0,STARLINK-5898,PAYLOAD,2024-02-28 22:40:26,14.98329916,0.00028,70.001,9.4906,270.1081,89.9757,0.00010631,1.176e-05,0.0,0 STARLINK-5898,1 55929U 23037R   24059.94475269  .00001176  00000-0  10631-3 0  9990,2 55929  70.0010   9.4906 0002800 270.1081  89.9757 14.98329916 52685,6950.193,96.107,574.004,570.112,0.0
55929.0,STARLINK-5898,PAYLOAD,2024-02-29 06:41:07,14.98327067,0.0002613,70.0015,8.6488,268.5007,91.5852,0.0001296,1.454e-05,0.0,0 STARLINK-5898,1 55929U 23037R   24060.27855480  .00001454  00000-0  12960-3 0  9991,2 55929  70.0015   8.6488 0002613 268.5007  91.5852 14.98327067 52733,6950.202,96.107,573.883,570.251,0.0
55929.0,STARLINK-5898,PAYLOAD,2024-02-29 21:06:19,14.98336578,0.0002595,70.0011,7.1348,274.3563,85.7299,-3.0186e-05,-4.53e-06,0.0,0 STARLINK-5898,1 55929U 23037R   24060.87939275 -.00000453  00000-0 -30186-4 0  9993,2 55929  70.0011   7.1348 0002595 274.3563  85.7299 14.98336578 53164,6950.173,96.107,573.841,570.234,0.0
55929.0,STARLINK-5898,PAYLOAD,2024-02-29 22:42:27,14.98350861,0.0002435,70.0014,6.9666,278.5506,81.5377,-0.00027067,-3.323e-05,0.0,0 STARLINK-5898,1 55929U 23037R   24060.94614899 -.00003323  00000-0 -27067-3 0  9995,2 55929  70.0014   6.9666 0002435 278.5506  81.5377 14.98350861 52838,6950.128,96.106,573.686,570.301,0.0
55929.0,STARLINK-5898,PAYLOAD,2024-03-01 03:30:53,14.98269317,0.0002103,70.0015,6.4616,272.7415,87.3503,0.0011885,0.00014094,0.0,0 STARLINK-5898,1 55929U 23037R   24061.14644735  .00014094  00000-0  11885-2 0  9995,2 55929  70.0015   6.4616 0002103 272.7415  87.3503 14.98269317 53208,6950.381,96.111,573.707,570.784,0.0
55929.0,STARLINK-5898,PAYLOAD,2024-03-01 13:07:39,14.98334759,0.0002782,70.0014,5.4521,268.717,91.3671,-1.6945e-07,-9.5e-07,0.0,0 STARLINK-5898,1 55929U 23037R   24061.54699011 -.00000095  00000-0 -16945-6 0  9990,2 55929  70.0014   5.4521 0002782 268.7170  91.3671 14.98334759 52929,6950.178,96.107,573.977,570.11,0.0
55929.0,STARLINK-5898,PAYLOAD,2024-03-01 21:08:20,14.98321779,0.0003112,70.0017,4.61,268.3661,91.7142,0.00023981,2.769e-05,0.0,0 STARLINK-5898,1 55929U 23037R   24061.88079122  .00002769  00000-0  23981-3 0  9995,2 55929  70.0017   4.6100 0003112 268.3661  91.7142 14.98321779 53314,6950.218,96.108,574.246,569.92,0.0
55929.0,STARLINK-5898,PAYLOAD,2024-03-02 03:32:52,14.9833441,0.0002825,70.0009,3.9377,266.0038,94.0798,5.4385e-05,5.56e-06,0.0,0 STARLINK-5898,1 55929U 23037R   24062.14782825  .00000556  00000-0  54385-4 0  9991,2 55929  70.0009   3.9377 0002825 266.0038  94.0798 14.98334410 53359,6950.179,96.107,574.008,570.081,0.0
55929.0,STARLINK-5898,PAYLOAD,2024-03-02 05:09:00,14.98336364,0.0002521,70.0012,3.7697,254.6422,105.4458,6.9553e-05,7.37e-06,0.0,0 STARLINK-5898,1 55929U 23037R   24062.21458648  .00000737  00000-0  69553-4 0  9996,2 55929  70.0012   3.7697 0002521 254.6422 105.4458 14.98336364 53023,6950.173,96.107,573.79,570.286,0.0
55929.0,STARLINK-5898,PAYLOAD,2024-03-02 22:46:29,14.98326753,0.0002871,70.0014,1.9185,268.2077,91.8754,4.8208e-05,4.82e-06,0.0,0 STARLINK-5898,1 55929U 23037R   24062.94895214  .00000482  00000-0  48208-4 0  9991,2 55929  70.0014   1.9185 0002871 268.2077  91.8754 14.98326753 53132,6950.203,96.107,574.063,570.073,0.0
55929.0,STARLINK-5898,PAYLOAD,2024-03-03 05:11:01,14.98332938,0.0002894,70.0011,1.2433,268.2691,91.8137,1.4264e-05,7.7e-07,0.0,0 STARLINK-5898,1 55929U 23037R   24063.21598908  .00000077  00000-0  14264-4 0  9997,2 55929  70.0011   1.2433 0002894 268.2691  91.8137 14.98332938 53514,6950.184,96.107,574.06,570.037,0.0
